COSMOS 1975             
1 19573U 88093A   17345.94588463  .00000770  00000-0  53010-4 0  9997
2 19573  82.5191 173.4853 0015517  56.3206 303.9498 15.04354487565390
